STARLINK-31808          
1 59751U 24090X   26068.35460652 -.00002321  00000+0 -74868-4 0  9991
2 59751  42.9978 184.9759 0000270 283.0419  77.0403 15.27585789103380
TEVEL2-9                
1 63237U 25052AD  26068.70229538  .00018694  00000+0  67240-3 0  9992
2 63237  97.4057 324.3929 0007990 124.2475 235.9522 15.28633834 54816
